[{"OBJECT_NAME":"TECMS","OBJECT_ID":"2022-090A","EPOCH":"2026-03-09T23:23:02.255424","MEAN_MOTION":15.21523319,"ECCENTRICITY":0.00036997,"INCLINATION":97.323,"RA_OF_ASC_NODE":139.8482,"ARG_OF_PERICENTER":189.8561,"MEAN_ANOMALY":170.2604,"EPHEMERIS_TYPE":0,"CLASSIFICATION_TYPE":"U","NORAD_CAT_ID":53346,"ELEMENT_SET_NO":999,"REV_AT_EPOCH":19972,"BSTAR":0.00023961949,"MEAN_MOTION_DOT":5.328e-5,"MEAN_MOTION_DDOT":0},{"OBJECT_NAME":"STARLINK-30208","OBJECT_ID":"2023-102M","EPOCH":"2026-03-09T22:00:01.999584","MEAN_MOTION":15.18316824,"ECCENTRICITY":0.00014024,"INCLINATION":42.9996,"RA_OF_ASC_NODE":246.5084,"ARG_OF_PERICENTER":264.9324,"MEAN_ANOMALY":100.8486,"EPHEMERIS_TYPE":0,"CLASSIFICATION_TYPE":"U","NORAD_CAT_ID":57415,"ELEMENT_SET_NO":999,"REV_AT_EPOCH":577,"BSTAR":0.005884723,"MEAN_MOTION_DOT":0.00124918,"MEAN_MOTION_DDOT":0}]
